start=new Date('2021-12-22T00:00:00.000Z').valueOf();
sats=[{"COUNTRY_CODE":"US","ECCENTRICITY":"0.00023140","CLASSIFICATION_TYPE":"U","FILE":"3246784","SEMIMAJOR_AXIS":"6925.349","NORAD_CAT_ID":"48666","PERIAPSIS":"545.611","OBJECT_ID":"2021-044AE","MEAN_MOTION":"15.06399899","EPHEMERIS_TYPE":"0","ELEMENT_SET_NO":"999","TLE_LINE2":"2 48666  53.0540 179.7726 0002314  82.7230 277.4022 15.06399899 31906","SITE":"AFETR","MEAN_ANOMALY":"277.4022","ARG_OF_PERICENTER":"82.7230","GP_ID":"192180078","MEAN_ELEMENT_THEORY":"SGP4","EPOCH":"2021-12-21T20:10:17.587776","OBJECT_NAME":"STARLINK-2666","REV_AT_EPOCH":"3190","DECAY_DATE":null,"OBJECT_TYPE":"PAYLOAD","REF_FRAME":"TEME","MEAN_MOTION_DDOT":"0.0000000000000","PERIOD":"95.592","TLE_LINE1":"1 48666U 21044AE  21355.84048134  .00001409  00000-0  11352-3 0  9998","TIME_SYSTEM":"UTC","LAUNCH_DATE":"2021-05-26","BSTAR":"0.00011352000000","INCLINATION":"53.0540","MEAN_MOTION_DOT":"0.00001409","APOAPSIS":"548.816","RA_OF_ASC_NODE":"179.7726","CENTER_NAME":"EARTH","RCS_SIZE":"LARGE"},{"OBJECT_NAME":"STARLINK-2735","REV_AT_EPOCH":"3192","DECAY_DATE":null,"OBJECT_TYPE":"PAYLOAD","REF_FRAME":"TEME","MEAN_MOTION_DDOT":"0.0000000000000","PERIOD":"95.592","TLE_LINE1":"1 48667U 21044AF  21355.92250585 -.00000793  00000-0 -34341-4 0  9994","TIME_SYSTEM":"UTC","LAUNCH_DATE":"2021-05-26","BSTAR":"-0.00003434100000","INCLINATION":"53.0547","MEAN_MOTION_DOT":"-0.00000793","APOAPSIS":"548.783","RA_OF_ASC_NODE":"179.4005","CENTER_NAME":"EARTH","RCS_SIZE":"LARGE","COUNTRY_CODE":"US","ECCENTRICITY":"0.00022580","CLASSIFICATION_TYPE":"U","FILE":"3246784","SEMIMAJOR_AXIS":"6925.354","NORAD_CAT_ID":"48667","PERIAPSIS":"545.655","OBJECT_ID":"2021-044AF","MEAN_MOTION":"15.06398252","EPHEMERIS_TYPE":"0","ELEMENT_SET_NO":"999","SITE":"AFETR","TLE_LINE2":"2 48667  53.0547 179.4005 0002258  86.6299 273.4949 15.06398252 31924","MEAN_ANOMALY":"273.4949","ARG_OF_PERICENTER":"86.6299","GP_ID":"192180712","EPOCH":"2021-12-21T22:08:24.505440","MEAN_ELEMENT_THEORY":"SGP4"},{"OBJECT_NAME":"STARLINK-2738","REV_AT_EPOCH":"3192","DECAY_DATE":null,"OBJECT_TYPE":"PAYLOAD","REF_FRAME":"TEME","TLE_LINE1":"1 48668U 21044AG  21355.91882554 -.00000714  00000-0 -29013-4 0  9994","MEAN_MOTION_DDOT":"0.0000000000000","PERIOD":"95.592","BSTAR":"-0.00002901300000","INCLINATION":"53.0549","TIME_SYSTEM":"UTC","LAUNCH_DATE":"2021-05-26","APOAPSIS":"549.001","MEAN_MOTION_DOT":"-0.00000714","RCS_SIZE":"LARGE","RA_OF_ASC_NODE":"179.4217","CENTER_NAME":"EARTH","COUNTRY_CODE":"US","ECCENTRICITY":"0.00025660","FILE":"3246784","SEMIMAJOR_AXIS":"6925.359","CLASSIFICATION_TYPE":"U","OBJECT_ID":"2021-044AG","MEAN_MOTION":"15.06396756","NORAD_CAT_ID":"48668","PERIAPSIS":"545.446","ELEMENT_SET_NO":"999","EPHEMERIS_TYPE":"0","MEAN_ANOMALY":"276.2231","TLE_LINE2":"2 48668  53.0549 179.4217 0002566  83.9050 276.2231 15.06396756 31921","SITE":"AFETR","EPOCH":"2021-12-21T22:03:06.526656","MEAN_ELEMENT_THEORY":"SGP4","ARG_OF_PERICENTER":"83.9050","GP_ID":"192180925"},{"INCLINATION":"53.0535","BSTAR":"0.00003547300000","LAUNCH_DATE":"2021-05-26","TIME_SYSTEM":"UTC","RCS_SIZE":"LARGE","CENTER_NAME":"EARTH","RA_OF_ASC_NODE":"179.7384","APOAPSIS":"549.099","MEAN_MOTION_DOT":"0.00000246","DECAY_DATE":null,"REV_AT_EPOCH":"3190","OBJECT_NAME":"STARLINK-2707","TLE_LINE1":"1 48669U 21044AH  21355.84878871  .00000246  00000-0  35473-4 0  9999","PERIOD":"95.592","MEAN_MOTION_DDOT":"0.0000000000000","REF_FRAME":"TEME","OBJECT_TYPE":"PAYLOAD","ELEMENT_SET_NO":"999","EPHEMERIS_TYPE":"0","MEAN_MOTION":"15.06398982","OBJECT_ID":"2021-044AH","PERIAPSIS":"545.334","NORAD_CAT_ID":"48669","EPOCH":"2021-12-21T20:22:15.344544","MEAN_ELEMENT_THEORY":"SGP4","GP_ID":"192179438","ARG_OF_PERICENTER":"87.9209","MEAN_ANOMALY":"272.2092","SITE":"AFETR","TLE_LINE2":"2 48669  53.0535 179.7384 0002718  87.9209 272.2092 15.06398982 31906","COUNTRY_CODE":"US","SEMIMAJOR_AXIS":"6925.352","FILE":"3246784","CLASSIFICATION_TYPE":"U","ECCENTRICITY":"0.00027180"},{"FILE":"3246784","SEMIMAJOR_AXIS":"6925.349","CLASSIFICATION_TYPE":"U","ECCENTRICITY":"0.00024920","COUNTRY_CODE":"US","EPOCH":"2021-12-21T21:52:29.515008","MEAN_ELEMENT_THEORY":"SGP4","ARG_OF_PERICENTER":"87.3228","GP_ID":"192179651","MEAN_ANOMALY":"272.8046","SITE":"AFETR","TLE_LINE2":"2 48670  53.0534 179.4552 0002492  87.3228 272.8046 15.06399879 31917","ELEMENT_SET_NO":"999","EPHEMERIS_TYPE":"0","OBJECT_ID":"2021-044AJ","MEAN_MOTION":"15.06399879","NORAD_CAT_ID":"48670","PERIAPSIS":"545.488","TLE_LINE1":"1 48670U 21044AJ  21355.91145272 -.00000153  00000-0  86296-5 0  9999","MEAN_MOTION_DDOT":"0.0000000000000","PERIOD":"95.592","OBJECT_TYPE":"PAYLOAD","REF_FRAME":"TEME","DECAY_DATE":null,"OBJECT_NAME":"STARLINK-2763","REV_AT_EPOCH":"3191","RCS_SIZE":"LARGE","RA_OF_ASC_NODE":"179.4552","CENTER_NAME":"EARTH","APOAPSIS":"548.940","MEAN_MOTION_DOT":"-0.00000153","BSTAR":"0.00000862960000","INCLINATION":"53.0534","TIME_SYSTEM":"UTC","LAUNCH_DATE":"2021-05-26"},{"APOAPSIS":"548.668","MEAN_MOTION_DOT":"-0.00000805","RCS_SIZE":"LARGE","RA_OF_ASC_NODE":"180.0706","CENTER_NAME":"EARTH","BSTAR":"-0.00003516300000","INCLINATION":"53.0549","TIME_SYSTEM":"UTC","LAUNCH_DATE":"2021-05-26","OBJECT_TYPE":"PAYLOAD","REF_FRAME":"TEME","TLE_LINE1":"1 48671U 21044AK  21355.77507395 -.00000805  00000-0 -35163-4 0  9993","MEAN_MOTION_DDOT":"0.0000000000000","PERIOD":"95.592","OBJECT_NAME":"STARLINK-2745","REV_AT_EPOCH":"3189","DECAY_DATE":null,"MEAN_ANOMALY":"272.7513","SITE":"AFETR","TLE_LINE2":"2 48671  53.0549 180.0706 0002088  87.3715 272.7513 15.06397157 31897","MEAN_ELEMENT_THEORY":"SGP4","EPOCH":"2021-12-21T18:36:06.389280","ARG_OF_PERICENTER":"87.3715","GP_ID":"192180289","OBJECT_ID":"2021-044AK","MEAN_MOTION":"15.06397157","NORAD_CAT_ID":"48671","PERIAPSIS":"545.776","ELEMENT_SET_NO":"999","EPHEMERIS_TYPE":"0","ECCENTRICITY":"0.00020880","FILE":"3246784","SEMIMAJOR_AXIS":"6925.357","CLASSIFICATION_TYPE":"U","COUNTRY_CODE":"US"},{"REF_FRAME":"TEME","OBJECT_TYPE":"PAYLOAD","PERIOD":"95.592","MEAN_MOTION_DDOT":"0.0000000000000","TLE_LINE1":"1 48672U 21044AL  21355.90407913  .00001289  00000-0  10546-3 0  9996","REV_AT_EPOCH":"3191","OBJECT_NAME":"STARLINK-2705","DECAY_DATE":null,"MEAN_MOTION_DOT":"0.00001289","APOAPSIS":"548.877","CENTER_NAME":"EARTH","RA_OF_ASC_NODE":"179.4879","RCS_SIZE":"LARGE","LAUNCH_DATE":"2021-05-26","TIME_SYSTEM":"UTC","INCLINATION":"53.0547","BSTAR":"0.00010546000000","ECCENTRICITY":"0.00023950","CLASSIFICATION_TYPE":"U","SEMIMAJOR_AXIS":"6925.353","FILE":"3246784","COUNTRY_CODE":"US","TLE_LINE2":"2 48672  53.0547 179.4879 0002395  87.0859 273.0404 15.06398422 31918","SITE":"AFETR","MEAN_ANOMALY":"273.0404","GP_ID":"192180502","ARG_OF_PERICENTER":"87.0859","EPOCH":"2021-12-21T21:41:52.436832","MEAN_ELEMENT_THEORY":"SGP4","PERIAPSIS":"545.560","NORAD_CAT_ID":"48672","MEAN_MOTION":"15.06398422","OBJECT_ID":"2021-044AL","EPHEMERIS_TYPE":"0","ELEMENT_SET_NO":"999"},{"OBJECT_NAME":"STARLINK-2711","REV_AT_EPOCH":"3189","DECAY_DATE":null,"OBJECT_TYPE":"PAYLOAD","REF_FRAME":"TEME","TLE_LINE1":"1 48673U 21044AM  21355.76770807  .00001369  00000-0  11084-3 0  9993","MEAN_MOTION_DDOT":"0.0000000000000","PERIOD":"95.592","BSTAR":"0.00011084000000","INCLINATION":"53.0542","TIME_SYSTEM":"UTC","LAUNCH_DATE":"2021-05-26","APOAPSIS":"549.023","MEAN_MOTION_DOT":"0.00001369","RCS_SIZE":"LARGE","RA_OF_ASC_NODE":"180.0975","CENTER_NAME":"EARTH","COUNTRY_CODE":"US","ECCENTRICITY":"0.00025960","FILE":"3246784","SEMIMAJOR_AXIS":"6925.360","CLASSIFICATION_TYPE":"U","OBJECT_ID":"2021-044AM","MEAN_MOTION":"15.06396308","NORAD_CAT_ID":"48673","PERIAPSIS":"545.427","ELEMENT_SET_NO":"999","EPHEMERIS_TYPE":"0","MEAN_ANOMALY":"268.4938","TLE_LINE2":"2 48673  53.0542 180.0975 0002596  91.6348 268.4938 15.06396308 31894","SITE":"AFETR","EPOCH":"2021-12-21T18:25:29.977248","MEAN_ELEMENT_THEORY":"SGP4","ARG_OF_PERICENTER":"91.6348","GP_ID":"192179866"},{"OBJECT_NAME":"STARLINK-2712","REV_AT_EPOCH":"3191","DECAY_DATE":null,"OBJECT_TYPE":"PAYLOAD","REF_FRAME":"TEME","TLE_LINE1":"1 48674U 21044AN  21355.89670903  .00001358  00000-0  11005-3 0  9995","MEAN_MOTION_DDOT":"0.0000000000000","PERIOD":"95.592","BSTAR":"0.00011005000000","INCLINATION":"53.0543","TIME_SYSTEM":"UTC","LAUNCH_DATE":"2021-05-26","APOAPSIS":"548.879","MEAN_MOTION_DOT":"0.00001358","RCS_SIZE":"LARGE","RA_OF_ASC_NODE":"179.5195","CENTER_NAME":"EARTH","COUNTRY_CODE":"US","ECCENTRICITY":"0.00024120","FILE":"3246784","SEMIMAJOR_AXIS":"6925.344","CLASSIFICATION_TYPE":"U","OBJECT_ID":"2021-044AN","MEAN_MOTION":"15.06401464","NORAD_CAT_ID":"48674","PERIAPSIS":"545.539","ELEMENT_SET_NO":"999","EPHEMERIS_TYPE":"0","MEAN_ANOMALY":"275.1190","TLE_LINE2":"2 48674  53.0543 179.5195 0002412  85.0074 275.1190 15.06401464 31911","SITE":"AFETR","MEAN_ELEMENT_THEORY":"SGP4","EPOCH":"2021-12-21T21:31:15.660192","ARG_OF_PERICENTER":"85.0074","GP_ID":"192180079"},{"ARG_OF_PERICENTER":"88.6048","GP_ID":"192180713","EPOCH":"2021-12-21T21:25:56.909856","MEAN_ELEMENT_THEORY":"SGP4","SITE":"AFETR","TLE_LINE2":"2 48675  53.0545 179.5442 0002653  88.6048 271.5245 15.06398936 31916","MEAN_ANOMALY":"271.5245","EPHEMERIS_TYPE":"0","ELEMENT_SET_NO":"999","NORAD_CAT_ID":"48675","PERIAPSIS":"545.380","OBJECT_ID":"2021-044AP","MEAN_MOTION":"15.06398936","CLASSIFICATION_TYPE":"U","FILE":"3246784","SEMIMAJOR_AXIS":"6925.352","ECCENTRICITY":"0.00026530","COUNTRY_CODE":"US","RA_OF_ASC_NODE":"179.5442","CENTER_NAME":"EARTH","RCS_SIZE":"LARGE","MEAN_MOTION_DOT":"-0.00000226","APOAPSIS":"549.054","TIME_SYSTEM":"UTC","LAUNCH_DATE":"2021-05-26","BSTAR":"0.00000375290000","INCLINATION":"53.0545","MEAN_MOTION_DDOT":"0.0000000000000","PERIOD":"95.592","TLE_LINE1":"1 48675U 21044AP  21355.89301979 -.00000226  00000-0  37529-5 0  9995","OBJECT_TYPE":"PAYLOAD","REF_FRAME":"TEME","DECAY_DATE":null,"OBJECT_NAME":"STARLINK-2737","REV_AT_EPOCH":"3191"}];
